XRISM                   
1 57800U 23137A   26071.21604297  .00005595  00000+0  31635-3 0  9997
2 57800  31.0012 267.3229 0007900  64.2433 295.9020 15.11531804138174
ACS3                    
1 59588U 24077B   26071.30600486  .00032954  00000+0  26351-1 0  9998
2 59588  97.2054  11.8295 0061653  70.1577 290.6219 13.89760412 94562
SZ-21 MODULE            
1 66515U 25246C   26070.66510517  .00042405  00000+0  36183-3 0  9996
2 66515  41.4734 191.1990 0001230 305.0978  54.9749 15.68721611 18382
