CCSDS_OMM_VERS = 2.0
CREATION_DATE  = 
ORIGINATOR     = 

OBJECT_NAME    = XRISM
OBJECT_ID      = 2023-137A
CENTER_NAME    = EARTH
REF_FRAME      = TEME
TIME_SYSTEM    = UTC
MEAN_ELEMENT_THEORY = SGP/SGP4

EPOCH          = 2026-03-12T05:11:06.112608
MEAN_MOTION    = 15.11531804
ECCENTRICITY   = .00079007
INCLINATION    = 31.0012
RA_OF_ASC_NODE = 267.3229
ARG_OF_PERICENTER = 64.2433
MEAN_ANOMALY   = 295.9020

EPHEMERIS_TYPE = 0
CLASSIFICATION_TYPE = U
NORAD_CAT_ID   = 57800
ELEMENT_SET_NO = 999
REV_AT_EPOCH   = 13817
BSTAR          = .3163544E-3
MEAN_MOTION_DOT = .5595E-4
MEAN_MOTION_DDOT = 0

CCSDS_OMM_VERS = 2.0
CREATION_DATE  = 
ORIGINATOR     = 

OBJECT_NAME    = ACS3
OBJECT_ID      = 2024-077B
CENTER_NAME    = EARTH
REF_FRAME      = TEME
TIME_SYSTEM    = UTC
MEAN_ELEMENT_THEORY = SGP/SGP4

EPOCH          = 2026-03-12T07:20:38.819904
MEAN_MOTION    = 13.89760412
ECCENTRICITY   = .00616533
INCLINATION    = 97.2054
RA_OF_ASC_NODE = 11.8295
ARG_OF_PERICENTER = 70.1577
MEAN_ANOMALY   = 290.6219

EPHEMERIS_TYPE = 0
CLASSIFICATION_TYPE = U
NORAD_CAT_ID   = 59588
ELEMENT_SET_NO = 999
REV_AT_EPOCH   = 9456
BSTAR          = .2635088E-1
MEAN_MOTION_DOT = .32954E-3
MEAN_MOTION_DDOT = 0

CCSDS_OMM_VERS = 2.0
CREATION_DATE  = 
ORIGINATOR     = 

OBJECT_NAME    = SZ-21 MODULE
OBJECT_ID      = 2025-246C
CENTER_NAME    = EARTH
REF_FRAME      = TEME
TIME_SYSTEM    = UTC
MEAN_ELEMENT_THEORY = SGP/SGP4

EPOCH          = 2026-03-11T15:57:45.086688
MEAN_MOTION    = 15.68721611
ECCENTRICITY   = .00012302
INCLINATION    = 41.4734
RA_OF_ASC_NODE = 191.1990
ARG_OF_PERICENTER = 305.0978
MEAN_ANOMALY   = 54.9749

EPHEMERIS_TYPE = 0
CLASSIFICATION_TYPE = U
NORAD_CAT_ID   = 66515
ELEMENT_SET_NO = 999
REV_AT_EPOCH   = 1838
BSTAR          = .36182576E-3
MEAN_MOTION_DOT = .42405E-3
MEAN_MOTION_DDOT = 0

